[{"OBJECT_NAME":"STARLINK-3912","OBJECT_ID":"2022-049BD","EPOCH":"2026-03-09T07:42:07.965792","MEAN_MOTION":15.0883763,"ECCENTRICITY":0.00013181,"INCLINATION":53.2171,"RA_OF_ASC_NODE":40.8031,"ARG_OF_PERICENTER":87.8622,"MEAN_ANOMALY":272.2521,"EPHEMERIS_TYPE":0,"CLASSIFICATION_TYPE":"U","NORAD_CAT_ID":52502,"ELEMENT_SET_NO":999,"REV_AT_EPOCH":21247,"BSTAR":-7.8261863e-5,"MEAN_MOTION_DOT":-1.533e-5,"MEAN_MOTION_DDOT":0},{"OBJECT_NAME":"OBJECT K","OBJECT_ID":"2017-042K","EPOCH":"2026-03-09T21:28:20.621568","MEAN_MOTION":15.07994228,"ECCENTRICITY":0.00097557,"INCLINATION":97.4104,"RA_OF_ASC_NODE":233.8721,"ARG_OF_PERICENTER":49.2775,"MEAN_ANOMALY":310.9299,"EPHEMERIS_TYPE":0,"CLASSIFICATION_TYPE":"U","NORAD_CAT_ID":42834,"ELEMENT_SET_NO":999,"REV_AT_EPOCH":47201,"BSTAR":0.00042776846,"MEAN_MOTION_DOT":6.528e-5,"MEAN_MOTION_DDOT":0}]
